{"fetched_at":"2026-07-21T07:06:58.342Z","source":"https://celestrak.org/NORAD/elements/gp.php?NAME=JILIN&FORMAT=JSON","constellation":"jilin-1-kuanfu","records":[{"OBJECT_NAME":"JILIN-1 KUANFU 01","OBJECT_ID":"2020-003A","EPOCH":"2026-07-20T22:20:48.829344","CLASSIFICATION_TYPE":"U","MEAN_MOTION":15.10887159,"ECCENTRICITY":0.00098196,"INCLINATION":97.5015,"RA_OF_ASC_NODE":275.2288,"ARG_OF_PERICENTER":177.1904,"MEAN_ANOMALY":182.9383,"EPHEMERIS_TYPE":0,"NORAD_CAT_ID":45016,"ELEMENT_SET_NO":999,"REV_AT_EPOCH":36042,"BSTAR":0.00011170018,"MEAN_MOTION_DOT":0.00001797,"MEAN_MOTION_DDOT":0},{"OBJECT_NAME":"JILIN-1 KUANFU-01B","OBJECT_ID":"2021-061A","EPOCH":"2026-07-20T23:22:22.127808","CLASSIFICATION_TYPE":"U","MEAN_MOTION":15.09817743,"ECCENTRICITY":0.00054311,"INCLINATION":97.519,"RA_OF_ASC_NODE":277.5388,"ARG_OF_PERICENTER":314.5036,"MEAN_ANOMALY":45.5749,"EPHEMERIS_TYPE":0,"NORAD_CAT_ID":49003,"ELEMENT_SET_NO":999,"REV_AT_EPOCH":27844,"BSTAR":0.000023282732,"MEAN_MOTION_DOT":0.00000314,"MEAN_MOTION_DDOT":0},{"OBJECT_NAME":"JILIN-1 KUANFU 01C","OBJECT_ID":"2022-048A","EPOCH":"2026-07-20T21:36:23.345280","CLASSIFICATION_TYPE":"U","MEAN_MOTION":15.09617998,"ECCENTRICITY":0.00177984,"INCLINATION":97.5246,"RA_OF_ASC_NODE":278.458,"ARG_OF_PERICENTER":199.6976,"MEAN_ANOMALY":160.3568,"EPHEMERIS_TYPE":0,"NORAD_CAT_ID":52443,"ELEMENT_SET_NO":999,"REV_AT_EPOCH":23228,"BSTAR":0.00012025932,"MEAN_MOTION_DOT":0.00001876,"MEAN_MOTION_DDOT":0},{"OBJECT_NAME":"JILIN-1 KUANFU 02A","OBJECT_ID":"2023-127A","EPOCH":"2026-07-20T21:57:33.044256","CLASSIFICATION_TYPE":"U","MEAN_MOTION":15.10840799,"ECCENTRICITY":0.00106851,"INCLINATION":97.5564,"RA_OF_ASC_NODE":295.3089,"ARG_OF_PERICENTER":214.9494,"MEAN_ANOMALY":145.1036,"EPHEMERIS_TYPE":0,"NORAD_CAT_ID":57696,"ELEMENT_SET_NO":999,"REV_AT_EPOCH":16072,"BSTAR":0.00015821937,"MEAN_MOTION_DOT":0.00002569,"MEAN_MOTION_DDOT":0},{"OBJECT_NAME":"JILIN-01 KUANFU 02B 1","OBJECT_ID":"2024-169A","EPOCH":"2026-07-20T22:26:54.795552","CLASSIFICATION_TYPE":"U","MEAN_MOTION":15.09080317,"ECCENTRICITY":0.00010987,"INCLINATION":97.5574,"RA_OF_ASC_NODE":290.9417,"ARG_OF_PERICENTER":306.9923,"MEAN_ANOMALY":53.1205,"EPHEMERIS_TYPE":0,"NORAD_CAT_ID":61189,"ELEMENT_SET_NO":999,"REV_AT_EPOCH":10091,"BSTAR":0.00014988759,"MEAN_MOTION_DOT":0.00002312,"MEAN_MOTION_DDOT":0},{"OBJECT_NAME":"JILIN-01 KUANFU 02B 2","OBJECT_ID":"2024-169B","EPOCH":"2026-07-20T21:57:46.685952","CLASSIFICATION_TYPE":"U","MEAN_MOTION":15.0904303,"ECCENTRICITY":0.00049499,"INCLINATION":97.5566,"RA_OF_ASC_NODE":290.3056,"ARG_OF_PERICENTER":253.1939,"MEAN_ANOMALY":106.8747,"EPHEMERIS_TYPE":0,"NORAD_CAT_ID":61190,"ELEMENT_SET_NO":999,"REV_AT_EPOCH":10091,"BSTAR":0.00015309893,"MEAN_MOTION_DOT":0.0000236,"MEAN_MOTION_DDOT":0},{"OBJECT_NAME":"JILIN-01 KUANFU 02B 3","OBJECT_ID":"2024-169C","EPOCH":"2026-07-20T22:10:27.816384","CLASSIFICATION_TYPE":"U","MEAN_MOTION":15.09081693,"ECCENTRICITY":0.0013602,"INCLINATION":97.5563,"RA_OF_ASC_NODE":290.7473,"ARG_OF_PERICENTER":185.8374,"MEAN_ANOMALY":174.2699,"EPHEMERIS_TYPE":0,"NORAD_CAT_ID":61191,"ELEMENT_SET_NO":999,"REV_AT_EPOCH":10091,"BSTAR":0.00016212046,"MEAN_MOTION_DOT":0.0000251,"MEAN_MOTION_DDOT":0},{"OBJECT_NAME":"JILIN-01 KUANFU 02B 4","OBJECT_ID":"2024-169D","EPOCH":"2026-07-20T21:25:34.003488","CLASSIFICATION_TYPE":"U","MEAN_MOTION":15.0906826,"ECCENTRICITY":0.00144363,"INCLINATION":97.5527,"RA_OF_ASC_NODE":290.2401,"ARG_OF_PERICENTER":145.2923,"MEAN_ANOMALY":214.9251,"EPHEMERIS_TYPE":0,"NORAD_CAT_ID":61192,"ELEMENT_SET_NO":999,"REV_AT_EPOCH":10091,"BSTAR":0.0001335753,"MEAN_MOTION_DOT":0.00002057,"MEAN_MOTION_DDOT":0},{"OBJECT_NAME":"JILIN-01 KUANFU 02B 5","OBJECT_ID":"2024-169E","EPOCH":"2026-07-20T22:42:12.516480","CLASSIFICATION_TYPE":"U","MEAN_MOTION":15.09098379,"ECCENTRICITY":0.00136947,"INCLINATION":97.5576,"RA_OF_ASC_NODE":291.0933,"ARG_OF_PERICENTER":167.9323,"MEAN_ANOMALY":192.2237,"EPHEMERIS_TYPE":0,"NORAD_CAT_ID":61193,"ELEMENT_SET_NO":999,"REV_AT_EPOCH":10092,"BSTAR":0.0001372735,"MEAN_MOTION_DOT":0.00002116,"MEAN_MOTION_DDOT":0},{"OBJECT_NAME":"JILIN-01 KUANFU 02B 6","OBJECT_ID":"2024-169F","EPOCH":"2026-07-20T21:40:58.543968","CLASSIFICATION_TYPE":"U","MEAN_MOTION":15.09058608,"ECCENTRICITY":0.00160991,"INCLINATION":97.5555,"RA_OF_ASC_NODE":290.942,"ARG_OF_PERICENTER":200.977,"MEAN_ANOMALY":159.0801,"EPHEMERIS_TYPE":0,"NORAD_CAT_ID":61194,"ELEMENT_SET_NO":999,"REV_AT_EPOCH":10092,"BSTAR":0.00013175772,"MEAN_MOTION_DOT":0.00002028,"MEAN_MOTION_DDOT":0}]}
