JILIN-1 KUANFU 01       
1 45016U 20003A   26201.93112071  .00001797  00000+0  11170-3 0  9992
2 45016  97.5015 275.2288 0009819 177.1904 182.9383 15.10887159360429
JILIN-1 KUANFU-01B      
1 49003U 21061A   26201.97386722  .00000314  00000+0  23283-4 0  9990
2 49003  97.5190 277.5388 0005431 314.5036  45.5749 15.09817743278448
JILIN-1 KUANFU 01C      
1 52443U 22048A   26201.90027020  .00001876  00000+0  12026-3 0  9990
2 52443  97.5246 278.4580 0017798 199.6976 160.3568 15.09617998232287
JILIN-1 KUANFU 02A      
1 57696U 23127A   26201.91496579  .00002569  00000+0  15822-3 0  9991
2 57696  97.5564 295.3089 0010685 214.9494 145.1036 15.10840799160720
JILIN-01 KUANFU 02B 1   
1 61189U 24169A   26201.93535643  .00002312  00000+0  14989-3 0  9997
2 61189  97.5574 290.9417 0001098 306.9923  53.1205 15.09080317100917
JILIN-01 KUANFU 02B 2   
1 61190U 24169B   26201.91512368  .00002360  00000+0  15310-3 0  9998
2 61190  97.5566 290.3056 0004949 253.1939 106.8747 15.09043030100919
JILIN-01 KUANFU 02B 3   
1 61191U 24169C   26201.92393306  .00002510  00000+0  16212-3 0  9998
2 61191  97.5563 290.7473 0013602 185.8374 174.2699 15.09081693100916
JILIN-01 KUANFU 02B 4   
1 61192U 24169D   26201.89275467  .00002057  00000+0  13358-3 0  9996
2 61192  97.5527 290.2401 0014436 145.2923 214.9251 15.09068260100910
JILIN-01 KUANFU 02B 5   
1 61193U 24169E   26201.94597820  .00002116  00000+0  13727-3 0  9999
2 61193  97.5576 291.0933 0013694 167.9323 192.2237 15.09098379100921
JILIN-01 KUANFU 02B 6   
1 61194U 24169F   26201.90345537  .00002028  00000+0  13176-3 0  9992
2 61194  97.5555 290.9420 0016099 200.9770 159.0801 15.09058608100923
